{"type": "FeatureCollection", "features": [ {"type": "Feature", "properties": {"norad_id": 64902, "name": "CO3D 2", "group": "resource", "lat": -76.61375649821339, "lon": -135.62061932557393, "alt_km": 513.0736455574715, "timestamp": "2025-12-27T14:26:30.174651+00:00", "meta": {"OBJECT_NAME": "CO3D 2", "OBJECT_ID": "2025-156D", "EPOCH": "2025-12-27T06:59:15.309888", "MEAN_MOTION": 15.20200383, "ECCENTRICITY": 7.999e-05, "INCLINATION": 97.4339, "RA_OF_ASC_NODE": 77.3484, "ARG_OF_PERICENTER": 59.3971, "MEAN_ANOMALY": 300.7343, "EPHEMERIS_TYPE": 0, "CLASSIFICATION_TYPE": "U", "NORAD_CAT_ID": 64902, "ELEMENT_SET_NO": 999, "REV_AT_EPOCH": 2341, "BSTAR": 0.00065699782, "MEAN_MOTION_DOT": 0.00014181, "MEAN_MOTION_DDOT": 0}, "tle": {"line1": "1 64902U 25156D   25361.29114942  .00014181  00000+0  65700-3 0  9994", "line2": "2 64902  97.4339  77.3484 0000799  59.3971 300.7343 15.20200383 23414"}}, "geometry": {"type": "Point", "coordinates": [-135.62061932557393, -76.61375649821339]}}, {"type": "Feature", "properties": {"norad_id": 64903, "name": "CO3D 1", "group": "resource", "lat": -75.8791661760554, "lon": -133.61280932060308, "alt_km": 513.1666635458232, "timestamp": "2025-12-27T14:26:30.174661+00:00", "meta": {"OBJECT_NAME": "CO3D 1", "OBJECT_ID": "2025-156E", "EPOCH": "2025-12-27T06:59:29.208192", "MEAN_MOTION": 15.20199804, "ECCENTRICITY": 9.042e-05, "INCLINATION": 97.434, "RA_OF_ASC_NODE": 77.3484, "ARG_OF_PERICENTER": 67.0171, "MEAN_ANOMALY": 293.116, "EPHEMERIS_TYPE": 0, "CLASSIFICATION_TYPE": "U", "NORAD_CAT_ID": 64903, "ELEMENT_SET_NO": 999, "REV_AT_EPOCH": 2341, "BSTAR": 0.00061159022, "MEAN_MOTION_DOT": 0.00013194, "MEAN_MOTION_DDOT": 0}, "tle": {"line1": "1 64903U 25156E   25361.29131028  .00013194  00000+0  61159-3 0  9996", "line2": "2 64903  97.4340  77.3484 0000904  67.0171 293.1160 15.20199804 23410"}}, "geometry": {"type": "Point", "coordinates": [-133.61280932060308, -75.8791661760554]}}, {"type": "Feature", "properties": {"norad_id": 66514, "name": "SENTINEL-6B", "group": "resource", "lat": -39.95933057450231, "lon": -26.56090000586312, "alt_km": 1338.965334426337, "timestamp": "2025-12-27T14:26:30.174671+00:00", "meta": {"OBJECT_NAME": "SENTINEL-6B", "OBJECT_ID": "2025-264A", "EPOCH": "2025-12-27T02:01:46.344288", "MEAN_MOTION": 12.8092956, "ECCENTRICITY": 0.00079209, "INCLINATION": 66.0402, "RA_OF_ASC_NODE": 132.6397, "ARG_OF_PERICENTER": 270.009, "MEAN_ANOMALY": 90.0018, "EPHEMERIS_TYPE": 0, "CLASSIFICATION_TYPE": "U", "NORAD_CAT_ID": 66514, "ELEMENT_SET_NO": 999, "REV_AT_EPOCH": 512, "BSTAR": 7.3939819e-05, "MEAN_MOTION_DOT": -4.4e-07, "MEAN_MOTION_DDOT": 0}, "tle": {"line1": "1 66514U 25264A   25361.08456417 -.00000044  00000+0  73940-4 0  9998", "line2": "2 66514  66.0402 132.6397 0007920 270.0090  90.0018 12.80929560  5127"}}, "geometry": {"type": "Point", "coordinates": [-26.56090000586312, -39.95933057450231]}}]}